NORAD_CAT_ID,OBJECT_NAME,OBJECT_TYPE,EPOCH,MEAN_MOTION,ECCENTRICITY,INCLINATION,RA_OF_ASC_NODE,ARG_OF_PERICENTER,MEAN_ANOMALY,BSTAR,MEAN_MOTION_DOT,MEAN_MOTION_DDOT,TLE_LINE0,TLE_LINE1,TLE_LINE2,SEMIMAJOR_AXIS,PERIOD,APOGEE,PERIGEE,DECAYED
52343.0,STARLINK-3849,PAYLOAD,2023-11-12 10:59:42,15.08833699,0.0001735,53.2168,56.9815,93.4267,266.6924,4.5481e-05,4.36e-06,0.0,0 STARLINK-3849,1 52343U 22045N   23316.45813494  .00000436  00000-0  45481-4 0  9992,2 52343  53.2168  56.9815 0001735  93.4267 266.6924 15.08833699 87591,6917.9,95.438,540.965,538.564,0.0
52343.0,STARLINK-3849,PAYLOAD,2023-11-12 12:35:05,15.08836615,0.0001658,53.2171,56.6836,87.7368,272.3814,2.9094e-05,1.75e-06,0.0,0 STARLINK-3849,1 52343U 22045N   23316.52437358  .00000175  00000-0  29094-4 0  9993,2 52343  53.2171  56.6836 0001658  87.7368 272.3814 15.08836615 87602,6917.891,95.438,540.903,538.609,0.0
52343.0,STARLINK-3849,PAYLOAD,2023-11-12 14:10:29,15.08836572,0.0001822,53.2183,56.3868,92.8236,267.2965,0.00015393,2.162e-05,0.0,0 STARLINK-3849,1 52343U 22045N   23316.59061408  .00002162  00000-0  15393-3 0  9993,2 52343  53.2183  56.3868 0001822  92.8236 267.2965 15.08836572 87614,6917.891,95.438,541.016,538.495,0.0
52343.0,STARLINK-3849,PAYLOAD,2023-11-13 10:50:29,15.08845203,0.0001685,53.2194,52.5219,94.7948,265.3236,0.00018085,2.592e-05,0.0,0 STARLINK-3849,1 52343U 22045N   23317.45172900  .00002592  00000-0  18085-3 0  9997,2 52343  53.2194  52.5219 0001685  94.7948 265.3236 15.08845203 87747,6917.864,95.437,540.895,538.564,0.0
52343.0,STARLINK-3849,PAYLOAD,2023-11-13 12:25:52,15.08851556,0.0001671,53.2192,52.2243,84.078,276.0403,3.7328e-05,3.06e-06,0.0,0 STARLINK-3849,1 52343U 22045N   23317.51796585  .00000306  00000-0  37328-4 0  9998,2 52343  53.2192  52.2243 0001671  84.0780 276.0403 15.08851556 87754,6917.845,95.437,540.866,538.554,0.0
52343.0,STARLINK-3849,PAYLOAD,2023-11-14 12:16:40,15.0883578,0.0001549,53.2175,47.7622,90.298,269.819,5.5428e-05,5.94e-06,0.0,0 STARLINK-3849,1 52343U 22045N   23318.51157509  .00000594  00000-0  55428-4 0  9996,2 52343  53.2175  47.7622 0001549  90.2980 269.8190 15.08835780 87901,6917.893,95.438,540.83,538.687,0.0
52343.0,STARLINK-3849,PAYLOAD,2023-11-15 12:07:26,15.08848428,0.0001433,53.2176,43.3014,99.8328,260.2826,4.1803e-05,3.78e-06,0.0,0 STARLINK-3849,1 52343U 22045N   23319.50517085  .00000378  00000-0  41803-4 0  9997,2 52343  53.2176  43.3014 0001433  99.8328 260.2826 15.08848428 88053,6917.855,95.437,540.711,538.728,0.0
52343.0,STARLINK-3849,PAYLOAD,2023-11-15 23:15:09,15.08840821,0.0001447,53.2168,41.2203,94.6301,265.4857,0.0001709,2.433e-05,0.0,0 STARLINK-3849,1 52343U 22045N   23319.96885543  .00002433  00000-0  17090-3 0  9998,2 52343  53.2168  41.2203 0001447  94.6301 265.4857 15.08840821 88128,6917.878,95.438,540.744,538.742,0.0
52343.0,STARLINK-3849,PAYLOAD,2023-11-16 15:09:00,15.08839626,0.0001452,53.2167,38.2468,94.5329,265.5829,0.00013487,1.859e-05,0.0,0 STARLINK-3849,1 52343U 22045N   23320.63125659  .00001859  00000-0  13487-3 0  9996,2 52343  53.2167  38.2468 0001452  94.5329 265.5829 15.08839626 88223,6917.882,95.438,540.751,538.742,0.0
52343.0,STARLINK-3849,PAYLOAD,2023-11-17 11:49:01,15.08842622,0.0001571,53.2173,34.3803,95.1078,265.0093,5.3423e-05,5.62e-06,0.0,0 STARLINK-3849,1 52343U 22045N   23321.49237532  .00000562  00000-0  53423-4 0  9990,2 52343  53.2173  34.3803 0001571  95.1078 265.0093 15.08842622 88352,6917.872,95.437,540.824,538.651,0.0
52343.0,STARLINK-3849,PAYLOAD,2023-11-17 14:59:47,15.08842167,0.0001463,53.2173,33.7857,96.7801,263.3358,5.0562e-05,5.17e-06,0.0,0 STARLINK-3849,1 52343U 22045N   23321.62485515  .00000517  00000-0  50562-4 0  9992,2 52343  53.2173  33.7857 0001463  96.7801 263.3358 15.08842167 88376,6917.874,95.437,540.751,538.727,0.0
52343.0,STARLINK-3849,PAYLOAD,2023-11-18 11:39:48,15.08840694,0.0001372,53.219,29.9209,87.6279,272.487,6.1836e-05,6.96e-06,0.0,0 STARLINK-3849,1 52343U 22045N   23322.48597655  .00000696  00000-0  61836-4 0  9990,2 52343  53.2190  29.9209 0001372  87.6279 272.4870 15.08840694 88508,6917.878,95.438,540.692,538.794,0.0
52343.0,STARLINK-3849,PAYLOAD,2023-11-18 21:12:07,15.08836792,0.0001285,53.2183,28.1375,89.8935,270.2204,7.9913e-05,9.84e-06,0.0,0 STARLINK-3849,1 52343U 22045N   23322.88341794  .00000984  00000-0  79913-4 0  9990,2 52343  53.2183  28.1375 0001285  89.8935 270.2204 15.08836792 88568,6917.89,95.438,540.644,538.866,0.0
52343.0,STARLINK-3849,PAYLOAD,2023-11-19 13:05:58,15.08846715,0.0001316,53.2188,25.164,90.0748,270.0395,9.6205e-05,1.244e-05,0.0,0 STARLINK-3849,1 52343U 22045N   23323.54581277  .00001244  00000-0  96205-4 0  9999,2 52343  53.2188  25.1640 0001316  90.0748 270.0395 15.08846715 88662,6917.86,95.437,540.635,538.814,0.0
52343.0,STARLINK-3849,PAYLOAD,2023-11-19 21:02:54,15.08839761,0.0001447,53.2194,23.6778,96.5623,263.5534,-1.0408e-05,-4.54e-06,0.0,0 STARLINK-3849,1 52343U 22045N   23323.87701854 -.00000454  00000-0 -10408-4 0  9995,2 52343  53.2194  23.6778 0001447  96.5623 263.5534 15.08839761 88713,6917.881,95.438,540.747,538.745,0.0
52343.0,STARLINK-3849,PAYLOAD,2023-11-20 12:56:45,15.0884609,0.0001453,53.2187,20.7032,91.0562,269.0597,6.6394e-05,7.69e-06,0.0,0 STARLINK-3849,1 52343U 22045N   23324.53941411  .00000769  00000-0  66394-4 0  9996,2 52343  53.2187  20.7032 0001453  91.0562 269.0597 15.08846090 88819,6917.862,95.437,540.732,538.722,0.0
52343.0,STARLINK-3849,PAYLOAD,2023-11-20 20:53:41,15.08842261,0.0001405,53.218,19.2167,85.5397,274.5755,6.7047e-05,7.79e-06,0.0,0 STARLINK-3849,1 52343U 22045N   23324.87061587  .00000779  00000-0  67047-4 0  9997,2 52343  53.2180  19.2167 0001405  85.5397 274.5755 15.08842261 88863,6917.873,95.437,540.71,538.767,0.0
52343.0,STARLINK-3849,PAYLOAD,2023-11-21 03:15:14,15.08839186,0.0001708,53.2178,18.0278,87.8529,272.2658,6.8196e-05,7.97e-06,0.0,0 STARLINK-3849,1 52343U 22045N   23325.13557881  .00000797  00000-0  68196-4 0  9990,2 52343  53.2178  18.0278 0001708  87.8529 272.2658 15.08839186 88902,6917.883,95.438,540.929,538.566,0.0
52343.0,STARLINK-3849,PAYLOAD,2023-11-21 11:12:09,15.08847677,0.0001419,53.2197,16.5386,88.4132,271.7023,7.8933e-05,9.69e-06,0.0,0 STARLINK-3849,1 52343U 22045N   23325.46677231  .00000969  00000-0  78933-4 0  9999,2 52343  53.2197  16.5386 0001419  88.4132 271.7023 15.08847677 88951,6917.857,95.437,540.704,538.74,0.0
52343.0,STARLINK-3849,PAYLOAD,2023-11-21 15:58:18,15.08851698,0.0001368,53.2195,15.6453,93.9921,266.1228,0.00011308,1.513e-05,0.0,0 STARLINK-3849,1 52343U 22045N   23325.66548794  .00001513  00000-0  11308-3 0  9990,2 52343  53.2195  15.6453 0001368  93.9921 266.1228 15.08851698 88980,6917.845,95.437,540.656,538.763,0.0
52343.0,STARLINK-3849,PAYLOAD,2023-11-22 03:06:01,15.0882889,7.94e-05,53.22,13.5664,88.5301,271.5782,2.7669e-05,1.53e-06,0.0,0 STARLINK-3849,1 52343U 22045N   23326.12918445  .00000153  00000-0  27669-4 0  9993,2 52343  53.2200  13.5664 0000794  88.5301 271.5782 15.08828890 89054,6917.914,95.438,540.329,539.23,0.0
52343.0,STARLINK-3849,PAYLOAD,2023-11-22 09:27:32,15.08852476,0.0001511,53.219,12.3765,104.76,255.356,9.9336e-05,1.294e-05,0.0,0 STARLINK-3849,1 52343U 22045N   23326.39412838  .00001294  00000-0  99336-4 0  9994,2 52343  53.2190  12.3765 0001511 104.7600 255.3560 15.08852476 89097,6917.842,95.437,540.753,538.662,0.0
52343.0,STARLINK-3849,PAYLOAD,2023-11-22 12:38:18,15.08860084,0.0001766,53.22,11.78,122.3838,237.7325,0.00012705,1.736e-05,0.0,0 STARLINK-3849,1 52343U 22045N   23326.52660111  .00001736  00000-0  12705-3 0  9993,2 52343  53.2200  11.7800 0001766 122.3838 237.7325 15.08860084 89113,6917.819,95.436,540.906,538.462,0.0
52343.0,STARLINK-3849,PAYLOAD,2023-11-23 09:18:20,15.08837478,0.0001846,53.2196,7.9176,70.2983,289.8209,3.8065e-05,3.18e-06,0.0,0 STARLINK-3849,1 52343U 22045N   23327.38774063  .00000318  00000-0  38065-4 0  9993,2 52343  53.2196   7.9176 0001846  70.2983 289.8209 15.08837478 89245,6917.888,95.438,541.03,538.476,0.0
52343.0,STARLINK-3849,PAYLOAD,2023-11-24 09:09:08,15.08832801,0.0001709,53.218,3.4596,70.6801,289.4376,-1.308e-06,-3.09e-06,0.0,0 STARLINK-3849,1 52343U 22045N   23328.38134724 -.00000309  00000-0 -13080-5 0  9991,2 52343  53.2180   3.4596 0001709  70.6801 289.4376 15.08832801 89398,6917.902,95.438,540.95,538.585,0.0
52343.0,STARLINK-3849,PAYLOAD,2023-11-25 08:59:55,15.08847734,0.0001753,53.2182,358.9994,83.7306,276.3885,0.00029024,4.335e-05,0.0,0 STARLINK-3849,1 52343U 22045N   23329.37494257  .00004335  00000-0  29024-3 0  9995,2 52343  53.2182 358.9994 0001753  83.7306 276.3885 15.08847734 89542,6917.857,95.437,540.934,538.509,0.0
52343.0,STARLINK-3849,PAYLOAD,2023-11-26 08:50:42,15.08837512,0.0001703,53.218,354.5299,119.5697,240.5465,0.00014641,2.043e-05,0.0,0 STARLINK-3849,1 52343U 22045N   23330.36854286  .00002043  00000-0  14641-3 0  9991,2 52343  53.2180 354.5299 0001703 119.5697 240.5465 15.08837512 89692,6917.888,95.438,540.931,538.575,0.0
52343.0,STARLINK-3849,PAYLOAD,2023-11-27 00:44:35,15.08826271,0.0002013,53.2198,351.5639,119.7443,240.375,-0.00013696,-2.466e-05,0.0,0 STARLINK-3849,1 52343U 22045N   23331.03096236 -.00002466  00000-0 -13696-3 0  9999,2 52343  53.2198 351.5639 0002013 119.7443 240.3750 15.08826271 89798,6917.922,95.438,541.18,538.395,0.0
52343.0,STARLINK-3849,PAYLOAD,2023-11-27 07:06:08,15.08816483,0.0001753,53.219,350.3726,107.6034,252.5149,-0.00021115,-3.645e-05,0.0,0 STARLINK-3849,1 52343U 22045N   23331.29593399 -.00003645  00000-0 -21115-3 0  9994,2 52343  53.2190 350.3726 0001753 107.6034 252.5149 15.08816483 89832,6917.952,95.439,541.03,538.605,0.0
52343.0,STARLINK-3849,PAYLOAD,2023-11-28 00:35:22,15.08830666,0.0002069,53.2196,347.0978,126.9618,233.1563,3.1465e-05,2.12e-06,0.0,0 STARLINK-3849,1 52343U 22045N   23332.02456128  .00000212  00000-0  31465-4 0  9999,2 52343  53.2196 347.0978 0002069 126.9618 233.1563 15.08830666 89949,6917.909,95.438,541.205,538.343,0.0
